[
    {
        "Altitude(m)": 607897.6395916644,
        "Argument of Periapsis(deg)": 0.0,
        "Eccentricity": 0.0,
        "Inclination(deg)": 60.0,
        "Latitude(deg)": -14.293075230087481,
        "Longitude(deg)": -48.3812270450599,
        "Mean Anomaly(deg)": -16.363600000000048,
        "RAAN(deg)": 60.0,
        "Satellite Name": "Test1 285",
        "Satellite Number": 285,
        "Semi-Major Axis(m)": 6980739.136638005,
        "Time(s)": 0
    },
    {
        "Altitude(m)": 607750.8399577305,
        "Argument of Periapsis(deg)": 0.00010418945913296404,
        "Eccentricity": 0.0,
        "Inclination(deg)": 60.0,
        "Latitude(deg)": -13.758916281098596,
        "Longitude(deg)": -48.09415864168576,
        "Mean Anomaly(deg)": -15.74349385453821,
        "RAAN(deg)": 59.99957995086026,
        "Satellite Name": "Test1 285",
        "Satellite Number": 285,
        "Semi-Major Axis(m)": 6980739.136638005,
        "Time(s)": 10
    }
]